ORBCOMM FM115 [+]       
1 41186U 15081H   23284.12733769  .00002297  00000+0  50971-3 0  9996
2 41186  46.9980  78.6104 0000605 188.3281 171.7595 14.59978232417823
ORBCOMM FM108 [+]       
1 41187U 15081J   23284.47178605  .00001630  00000+0  40458-3 0  9996
2 41187  47.0036 124.6534 0002188  12.3918 347.7020 14.55982908417232
ORBCOMM FM117 [+]       
1 41188U 15081K   23284.57452567  .00001607  00000+0  39969-3 0  9999
2 41188  46.9997 123.1322 0002742  24.2114 335.8899 14.55954058417262
ORBCOMM FM116 [+]       
1 41189U 15081L   23284.22131940  .00002513  00000+0  60333-3 0  9997
2 41189  47.0006 214.6031 0001213 112.7150 247.3862 14.55972804416045
